NORAD_CAT_ID,OBJECT_NAME,OBJECT_TYPE,EPOCH,MEAN_MOTION,ECCENTRICITY,INCLINATION,RA_OF_ASC_NODE,ARG_OF_PERICENTER,MEAN_ANOMALY,BSTAR,MEAN_MOTION_DOT,MEAN_MOTION_DDOT,TLE_LINE0,TLE_LINE1,TLE_LINE2,SEMIMAJOR_AXIS,PERIOD,APOGEE,PERIGEE,DECAYED
53632.0,STARLINK-4606,PAYLOAD,2024-08-08 22:21:23,15.0885492,0.0001578,53.2155,297.7649,91.1369,268.9804,0.0014184,0.00022367,0.0,0 STARLINK-4606,1 53632U 22104AW  24221.93152100  .00022367  00000-0  14184-2 0  9990,2 53632  53.2155 297.7649 0001578  91.1369 268.9804 15.08854920109005,6917.835,95.437,540.791,538.608,0.0
53632.0,STARLINK-4606,PAYLOAD,2024-08-09 04:42:56,15.08823848,0.0001867,53.2163,296.5771,97.6381,262.4824,0.00010054,1.312e-05,0.0,0 STARLINK-4606,1 53632U 22104AW  24222.19648639  .00001312  00000-0  10054-3 0  9996,2 53632  53.2163 296.5771 0001867  97.6381 262.4824 15.08823848108020,6917.93,95.439,541.086,538.503,0.0
53632.0,STARLINK-4606,PAYLOAD,2024-08-09 14:15:15,15.08845208,0.0001587,53.2155,294.7912,99.9485,260.1686,0.00090777,0.00014191,0.0,0 STARLINK-4606,1 53632U 22104AW  24222.59392577  .00014191  00000-0  90777-3 0  9996,2 53632  53.2155 294.7912 0001587  99.9485 260.1686 15.08845208109102,6917.864,95.437,540.827,538.632,0.0
53632.0,STARLINK-4606,PAYLOAD,2024-08-10 04:33:43,15.08853554,0.0001653,53.2154,292.1135,100.5263,259.5915,0.00087779,0.00013715,0.0,0 STARLINK-4606,1 53632U 22104AW  24223.19008606  .00013715  00000-0  87779-3 0  9999,2 53632  53.2154 292.1135 0001653 100.5263 259.5915 15.08853554108173,6917.839,95.437,540.847,538.56,0.0
53632.0,STARLINK-4606,PAYLOAD,2024-08-10 10:55:15,15.08851723,0.0001633,53.2155,290.9228,103.3775,256.74,0.00057263,8.84e-05,0.0,0 STARLINK-4606,1 53632U 22104AW  24223.45504450  .00008840  00000-0  57263-3 0  9994,2 53632  53.2155 290.9228 0001633 103.3775 256.7400 15.08851723109232,6917.845,95.437,540.839,538.58,0.0
53632.0,STARLINK-4606,PAYLOAD,2024-08-11 10:46:02,15.08840302,0.000126,53.2152,286.4644,97.8111,262.3024,0.00020512,2.978e-05,0.0,0 STARLINK-4606,1 53632U 22104AW  24224.44864026  .00002978  00000-0  20512-3 0  9995,2 53632  53.2152 286.4644 0001260  97.8111 262.3024 15.08840302108367,6917.879,95.438,540.616,538.873,0.0
53632.0,STARLINK-4606,PAYLOAD,2024-08-11 13:56:48,15.0884589,0.0001989,53.2157,285.8672,106.5578,253.5632,0.00043329,6.616e-05,0.0,0 STARLINK-4606,1 53632U 22104AW  24224.58112090  .00006616  00000-0  43329-3 0  9991,2 53632  53.2157 285.8672 0001989 106.5578 253.5632 15.08845890109409,6917.862,95.437,541.103,538.351,0.0
53632.0,STARLINK-4606,PAYLOAD,2024-08-12 13:47:35,15.0885852,0.0001566,53.2163,281.4037,104.2457,255.871,0.00068787,0.00010682,0.0,0 STARLINK-4606,1 53632U 22104AW  24225.57471718  .00010682  00000-0  68787-3 0  9999,2 53632  53.2163 281.4037 0001566 104.2457 255.8710 15.08858520109557,6917.824,95.436,540.772,538.605,0.0
53632.0,STARLINK-4606,PAYLOAD,2024-08-12 15:22:58,15.08876907,0.0001391,53.2178,281.1106,101.2133,258.9015,0.0012267,0.00019309,0.0,0 STARLINK-4606,1 53632U 22104AW  24225.64095059  .00019309  00000-0  12267-2 0  9993,2 53632  53.2178 281.1106 0001391 101.2133 258.9015 15.08876907108540,6917.768,95.435,540.595,538.67,0.0
53632.0,STARLINK-4606,PAYLOAD,2024-08-13 02:30:40,15.08848556,0.0002022,53.2158,279.0261,114.1773,245.9431,0.00033696,5.08e-05,0.0,0 STARLINK-4606,1 53632U 22104AW  24226.10463934  .00005080  00000-0  33696-3 0  9997,2 53632  53.2158 279.0261 0002022 114.1773 245.9431 15.08848556108616,6917.854,95.437,541.118,538.32,0.0
53632.0,STARLINK-4606,PAYLOAD,2024-08-13 10:27:37,15.08800532,0.0001304,53.2162,277.5382,69.8852,290.2281,-0.00081115,-0.0001316,0.0,0 STARLINK-4606,1 53632U 22104AW  24226.43585429 -.00013160  00000-0 -81115-3 0  9996,2 53632  53.2162 277.5382 0001304  69.8852 290.2281 15.08800532108667,6918.001,95.44,540.768,538.964,0.0
53632.0,STARLINK-4606,PAYLOAD,2024-08-13 19:59:57,15.08800016,0.0001287,53.2164,275.7546,65.4468,294.6658,-0.00035556,-5.936e-05,0.0,0 STARLINK-4606,1 53632U 22104AW  24226.83330662 -.00005936  00000-0 -35556-3 0  9997,2 53632  53.2164 275.7546 0001287  65.4468 294.6658 15.08800016109749,6918.003,95.44,540.758,538.977,0.0
53632.0,STARLINK-4606,PAYLOAD,2024-08-14 10:18:26,15.08838548,0.0001571,53.2162,273.0827,69.342,290.7741,0.0010559,0.00016556,0.0,0 STARLINK-4606,1 53632U 22104AW  24227.42946979  .00016556  00000-0  10559-2 0  9990,2 53632  53.2162 273.0827 0001571  69.3420 290.7741 15.08838548108815,6917.885,95.438,540.837,538.663,0.0
53632.0,STARLINK-4606,PAYLOAD,2024-08-14 19:50:44,15.08854101,0.0001544,53.2167,271.2998,69.6054,290.5104,0.0006878,0.00010679,0.0,0 STARLINK-4606,1 53632U 22104AW  24227.82690699  .00010679  00000-0  68780-3 0  9999,2 53632  53.2167 271.2998 0001544  69.6054 290.5104 15.08854101109898,6917.837,95.437,540.77,538.634,0.0
53632.0,STARLINK-4606,PAYLOAD,2024-08-15 10:09:12,15.08869119,0.0001483,53.2144,268.6201,54.7869,305.3262,0.0011378,0.00017881,0.0,0 STARLINK-4606,1 53632U 22104AW  24228.42305802  .00017881  00000-0  11378-2 0  9997,2 53632  53.2144 268.6201 0001483  54.7869 305.3262 15.08869119109986,6917.791,95.436,540.682,538.63,0.0
53632.0,STARLINK-4606,PAYLOAD,2024-08-15 19:41:30,15.08867913,0.0001593,53.2154,266.8354,62.4335,297.6819,0.00063672,9.868e-05,0.0,0 STARLINK-4606,1 53632U 22104AW  24228.82049196  .00009868  00000-0  63672-3 0  9993,2 53632  53.2154 266.8354 0001593  62.4335 297.6819 15.08867913109028,6917.795,95.436,540.762,538.558,0.0
53632.0,STARLINK-4606,PAYLOAD,2024-08-16 09:59:58,15.08853426,0.0001555,53.2157,264.1629,72.9855,287.1308,8.3911e-05,1.048e-05,0.0,0 STARLINK-4606,1 53632U 22104AW  24229.41665069  .00001048  00000-0  83911-4 0  9993,2 53632  53.2157 264.1629 0001555  72.9855 287.1308 15.08853426109119,6917.839,95.437,540.78,538.629,0.0
53632.0,STARLINK-4606,PAYLOAD,2024-08-17 01:53:49,15.08848939,0.0001558,53.2146,261.1905,74.2593,285.8571,0.00021041,3.063e-05,0.0,0 STARLINK-4606,1 53632U 22104AW  24230.07905004  .00003063  00000-0  21041-3 0  9997,2 53632  53.2146 261.1905 0001558  74.2593 285.8571 15.08848939109219,6917.853,95.437,540.796,538.64,0.0
53632.0,STARLINK-4606,PAYLOAD,2024-08-17 11:26:08,15.08844432,0.0001711,53.2159,259.4039,71.06,289.0577,-7.5435e-05,-1.489e-05,0.0,0 STARLINK-4606,1 53632U 22104AW  24230.47649294 -.00001489  00000-0 -75435-4 0  9996,2 53632  53.2159 259.4039 0001711  71.0600 289.0577 15.08844432109278,6917.867,95.437,540.915,538.548,0.0
53632.0,STARLINK-4606,PAYLOAD,2024-08-18 01:44:37,15.0884352,0.0001545,53.2161,256.7269,73.8806,286.2356,0.00010579,1.396e-05,0.0,0 STARLINK-4606,1 53632U 22104AW  24231.07265221  .00001396  00000-0  10579-3 0  9999,2 53632  53.2161 256.7269 0001545  73.8806 286.2356 15.08843520110384,6917.87,95.437,540.803,538.666,0.0
53632.0,STARLINK-4606,PAYLOAD,2024-08-18 20:49:14,15.08846089,0.0001405,53.2154,253.1577,84.6428,275.4724,0.00010729,1.42e-05,0.0,0 STARLINK-4606,1 53632U 22104AW  24231.86752653  .00001420  00000-0  10729-3 0  9991,2 53632  53.2154 253.1577 0001405  84.6428 275.4724 15.08846089109485,6917.862,95.437,540.699,538.755,0.0
53632.0,STARLINK-4606,PAYLOAD,2024-08-19 04:46:10,15.08836565,0.0001473,53.2155,251.6708,84.0211,276.0949,5.0028e-05,5.08e-06,0.0,0 STARLINK-4606,1 53632U 22104AW  24232.19873389  .00000508  00000-0  50028-4 0  9991,2 53632  53.2155 251.6708 0001473  84.0211 276.0949 15.08836565109534,6917.891,95.438,540.775,538.737,0.0
53632.0,STARLINK-4606,PAYLOAD,2024-08-19 07:56:56,15.08836154,0.0001443,53.2157,251.0761,86.0513,274.0644,3.8537e-05,3.25e-06,0.0,0 STARLINK-4606,1 53632U 22104AW  24232.33121423  .00000325  00000-0  38537-4 0  9990,2 53632  53.2157 251.0761 0001443  86.0513 274.0644 15.08836154110573,6917.892,95.438,540.755,538.759,0.0
53632.0,STARLINK-4606,PAYLOAD,2024-08-20 06:12:20,15.08840001,0.0001424,53.2149,246.9124,86.2004,273.9151,-3.7025e-06,-3.47e-06,0.0,0 STARLINK-4606,1 53632U 22104AW  24233.25857347 -.00000347  00000-0 -37025-5 0  9991,2 53632  53.2149 246.9124 0001424  86.2004 273.9151 15.08840001109694,6917.88,95.438,540.73,538.76,0.0
53632.0,STARLINK-4606,PAYLOAD,2024-08-21 07:38:31,15.08832733,0.0001416,53.2153,242.1558,84.8723,275.2431,8.3833e-05,1.046e-05,0.0,0 STARLINK-4606,1 53632U 22104AW  24234.31841717  .00001046  00000-0  83833-4 0  9995,2 53632  53.2153 242.1558 0001416  84.8723 275.2431 15.08832733109858,6917.903,95.438,540.747,538.788,0.0
